0 LANDSAT 2
1 07615U 75004A   13282.76787647 -.00000024  00000-0  14046-4 0   169
2 07615 098.9986 339.7452 0009487 132.7701 004.8045 13.96567190972615
0 LANDSAT 2
1 07615U 75004A   13283.77082185 -.00000085  00000-0 -30148-4 0   176
2 07615 098.9985 340.7260 0009502 130.3556 006.9096 13.96567649972756
0 LANDSAT 2
1 07615U 75004A   13286.19267352 -.00000231  00000-0 -13587-3 0   198
2 07615 098.9980 343.0949 0009511 124.7958 302.0140 13.96567369973091
0 LANDSAT 2
1 07615U 75004A   13287.26226986 -.00000273  00000-0 -16586-3 0   205
2 07615 098.9976 344.1410 0009518 122.2618 279.1551 13.96566842973246
0 LANDSAT 2
1 07615U 75004A   13288.77987661 -.00000285  00000-0 -17476-3 0   219
2 07615 098.9969 345.6252 0009521 118.6623 348.5645 13.96565870973455
0 LANDSAT 2
1 07615U 75004A   13289.78284384 -.00000128  00000-0 -61416-4 0   224
2 07615 098.9964 346.6062 0009628 116.7134 350.3216 13.96563714973599
0 LANDSAT 2
1 07615U 75004A   13290.78598924 -.00000072  00000-0 -20660-4 0   239
2 07615 098.9961 347.5871 0009659 114.1739 353.5557 13.96562839973737
0 LANDSAT 2
1 07615U 75004A   13291.79472429 -.00000006  00000-0  26874-4 0   242
2 07615 098.9960 348.5733 0009667 111.6564 024.8531 13.96562118973876
0 LANDSAT 2
1 07615U 75004A   13292.79765619 -.00000080  00000-0 -26257-4 0   258
2 07615 098.9956 349.5537 0009640 108.7190 027.4000 13.96562977974017
0 LANDSAT 2
1 07615U 75004A   13293.80069150  .00000009  00000-0  37839-4 0   266
2 07615 098.9956 350.5343 0009662 106.1619 030.0929 13.96562502974155
0 LANDSAT 2
1 07615U 75004A   13295.14541759  .00000115  00000-0  11441-3 0   274
2 07615 098.9957 351.8489 0009642 102.7438 310.6006 13.96562060974343
0 LANDSAT 2
1 07615U 75004A   13296.14846534  .00000177  00000-0  15923-3 0   282
2 07615 098.9957 352.8295 0009637 100.1350 313.4040 13.96561949974487
